{"type": "FeatureCollection", "features": [ {"type": "Feature", "properties": {"norad_id": 40701, "name": "GAOFEN-8", "group": "resource", "lat": -32.131478308681736, "lon": -176.17238862365542, "alt_km": 459.5306223772077, "timestamp": "2025-12-26T03:50:11.744969+00:00", "meta": {"OBJECT_NAME": "GAOFEN-8", "OBJECT_ID": "2015-030A", "EPOCH": "2025-12-25T20:10:31.293408", "MEAN_MOTION": 15.39033929, "ECCENTRICITY": 0.0011437, "INCLINATION": 97.6903, "RA_OF_ASC_NODE": 178.6242, "ARG_OF_PERICENTER": 93.4891, "MEAN_ANOMALY": 266.7662, "EPHEMERIS_TYPE": 0, "CLASSIFICATION_TYPE": "U", "NORAD_CAT_ID": 40701, "ELEMENT_SET_NO": 999, "REV_AT_EPOCH": 58472, "BSTAR": 0.00069187, "MEAN_MOTION_DOT": 0.00026777, "MEAN_MOTION_DDOT": 0}, "tle": {"line1": "1 40701U 15030A   25359.84063997  .00026777  00000+0  69187-3 0  9993", "line2": "2 40701  97.6903 178.6242 0011437  93.4891 266.7662 15.39033929584723"}}, "geometry": {"type": "Point", "coordinates": [-176.17238862365542, -32.131478308681736]}}, {"type": "Feature", "properties": {"norad_id": 40718, "name": "CARBONITE 1 (CBNT-1)", "group": "resource", "lat": 75.46905981725378, "lon": 149.4214685047094, "alt_km": 607.9598366594391, "timestamp": "2025-12-26T03:50:11.744979+00:00", "meta": {"OBJECT_NAME": "CARBONITE 1 (CBNT-1)", "OBJECT_ID": "2015-032D", "EPOCH": "2025-12-25T19:23:24.097056", "MEAN_MOTION": 14.82809457, "ECCENTRICITY": 0.0015417, "INCLINATION": 97.6406, "RA_OF_ASC_NODE": 180.2776, "ARG_OF_PERICENTER": 139.1726, "MEAN_ANOMALY": 221.0647, "EPHEMERIS_TYPE": 0, "CLASSIFICATION_TYPE": "U", "NORAD_CAT_ID": 40718, "ELEMENT_SET_NO": 999, "REV_AT_EPOCH": 56364, "BSTAR": 0.00070681, "MEAN_MOTION_DOT": 5.681e-05, "MEAN_MOTION_DDOT": 0}, "tle": {"line1": "1 40718U 15032D   25359.80791779  .00005681  00000+0  70681-3 0  9997", "line2": "2 40718  97.6406 180.2776 0015417 139.1726 221.0647 14.82809457563646"}}, "geometry": {"type": "Point", "coordinates": [149.4214685047094, 75.46905981725378]}}, {"type": "Feature", "properties": {"norad_id": 40878, "name": "YAOGAN-27", "group": "resource", "lat": 14.483186512171157, "lon": -13.466403288212138, "alt_km": 1203.4617586368176, "timestamp": "2025-12-26T03:50:11.744990+00:00", "meta": {"OBJECT_NAME": "YAOGAN-27", "OBJECT_ID": "2015-040A", "EPOCH": "2025-12-25T20:27:50.228352", "MEAN_MOTION": 13.16061658, "ECCENTRICITY": 0.000757, "INCLINATION": 100.1023, "RA_OF_ASC_NODE": 348.8796, "ARG_OF_PERICENTER": 254.0975, "MEAN_ANOMALY": 105.9305, "EPHEMERIS_TYPE": 0, "CLASSIFICATION_TYPE": "U", "NORAD_CAT_ID": 40878, "ELEMENT_SET_NO": 999, "REV_AT_EPOCH": 49486, "BSTAR": -1.6827e-05, "MEAN_MOTION_DOT": -4.9e-07, "MEAN_MOTION_DDOT": 0}, "tle": {"line1": "1 40878U 15040A   25359.85266468 -.00000049  00000+0 -16827-4 0  9998", "line2": "2 40878 100.1023 348.8796 0007570 254.0975 105.9305 13.16061658494863"}}, "geometry": {"type": "Point", "coordinates": [-13.466403288212138, 14.483186512171157]}}, {"type": "Feature", "properties": {"norad_id": 40894, "name": "GAOFEN-9 01", "group": "resource", "lat": -17.62918269873249, "lon": 40.9836177427214, "alt_km": 607.6792344221212, "timestamp": "2025-12-26T03:50:11.745001+00:00", "meta": {"OBJECT_NAME": "GAOFEN-9 01", "OBJECT_ID": "2015-047A", "EPOCH": "2025-12-25T21:26:11.503680", "MEAN_MOTION": 14.82453744, "ECCENTRICITY": 0.0027318, "INCLINATION": 97.6526, "RA_OF_ASC_NODE": 38.2797, "ARG_OF_PERICENTER": 351.6682, "MEAN_ANOMALY": 8.4075, "EPHEMERIS_TYPE": 0, "CLASSIFICATION_TYPE": "U", "NORAD_CAT_ID": 40894, "ELEMENT_SET_NO": 999, "REV_AT_EPOCH": 55451, "BSTAR": 0.00015258, "MEAN_MOTION_DOT": 1.18e-05, "MEAN_MOTION_DDOT": 0}, "tle": {"line1": "1 40894U 15047A   25359.89318870  .00001180  00000+0  15258-3 0  9993", "line2": "2 40894  97.6526  38.2797 0027318 351.6682   8.4075 14.82453744554516"}}, "geometry": {"type": "Point", "coordinates": [40.9836177427214, -17.62918269873249]}}, {"type": "Feature", "properties": {"norad_id": 41026, "name": "YAOGAN-28", "group": "resource", "lat": 0.20741143924456226, "lon": 137.5487985091644, "alt_km": 494.1081222364228, "timestamp": "2025-12-26T03:50:11.745011+00:00", "meta": {"OBJECT_NAME": "YAOGAN-28", "OBJECT_ID": "2015-064A", "EPOCH": "2025-12-25T21:32:05.055936", "MEAN_MOTION": 15.24559786, "ECCENTRICITY": 0.0012657, "INCLINATION": 97.2816, "RA_OF_ASC_NODE": 137.3201, "ARG_OF_PERICENTER": 84.3332, "MEAN_ANOMALY": 275.9349, "EPHEMERIS_TYPE": 0, "CLASSIFICATION_TYPE": "U", "NORAD_CAT_ID": 41026, "ELEMENT_SET_NO": 999, "REV_AT_EPOCH": 56425, "BSTAR": 0.00032749, "MEAN_MOTION_DOT": 8.015e-05, "MEAN_MOTION_DDOT": 0}, "tle": {"line1": "1 41026U 15064A   25359.89728074  .00008015  00000+0  32749-3 0  9999", "line2": "2 41026  97.2816 137.3201 0012657  84.3332 275.9349 15.24559786564252"}}, "geometry": {"type": "Point", "coordinates": [137.5487985091644, 0.20741143924456226]}}, {"type": "Feature", "properties": {"norad_id": 41038, "name": "YAOGAN-29", "group": "resource", "lat": -70.7443746539848, "lon": 179.5670916362089, "alt_km": 627.5111287788113, "timestamp": "2025-12-26T03:50:11.745021+00:00", "meta": {"OBJECT_NAME": "YAOGAN-29", "OBJECT_ID": "2015-069A", "EPOCH": "2025-12-25T20:13:26.592096", "MEAN_MOTION": 14.82897674, "ECCENTRICITY": 9.34e-05, "INCLINATION": 98.0207, "RA_OF_ASC_NODE": 23.0553, "ARG_OF_PERICENTER": 160.5912, "MEAN_ANOMALY": 199.5337, "EPHEMERIS_TYPE": 0, "CLASSIFICATION_TYPE": "U", "NORAD_CAT_ID": 41038, "ELEMENT_SET_NO": 999, "REV_AT_EPOCH": 54493, "BSTAR": 0.00010562, "MEAN_MOTION_DOT": 8.02e-06, "MEAN_MOTION_DDOT": 0}, "tle": {"line1": "1 41038U 15069A   25359.84266889  .00000802  00000+0  10562-3 0  9998", "line2": "2 41038  98.0207  23.0553 0000934 160.5912 199.5337 14.82897674544930"}}, "geometry": {"type": "Point", "coordinates": [179.5670916362089, -70.7443746539848]}}, {"type": "Feature", "properties": {"norad_id": 41167, "name": "KENT RIDGE 1", "group": "resource", "lat": 14.818281618511213, "lon": -166.77394679079896, "alt_km": 498.8139045938997, "timestamp": "2025-12-26T03:50:11.745031+00:00", "meta": {"OBJECT_NAME": "KENT RIDGE 1", "OBJECT_ID": "2015-077B", "EPOCH": "2025-12-25T16:28:00.882048", "MEAN_MOTION": 15.21731933, "ECCENTRICITY": 0.0008537, "INCLINATION": 14.9792, "RA_OF_ASC_NODE": 115.0675, "ARG_OF_PERICENTER": 313.4673, "MEAN_ANOMALY": 46.4939, "EPHEMERIS_TYPE": 0, "CLASSIFICATION_TYPE": "U", "NORAD_CAT_ID": 41167, "ELEMENT_SET_NO": 999, "REV_AT_EPOCH": 55461, "BSTAR": 0.00017413, "MEAN_MOTION_DOT": 4.822e-05, "MEAN_MOTION_DDOT": 0}, "tle": {"line1": "1 41167U 15077B   25359.68612132  .00004822  00000+0  17413-3 0  9996", "line2": "2 41167  14.9792 115.0675 0008537 313.4673  46.4939 15.21731933554619"}}, "geometry": {"type": "Point", "coordinates": [-166.77394679079896, 14.818281618511213]}}, {"type": "Feature", "properties": {"norad_id": 41194, "name": "GAOFEN-4", "group": "resource", "lat": -0.004261211716340419, "lon": -101.81207216049425, "alt_km": 35785.20481772483, "timestamp": "2025-12-26T03:50:11.745045+00:00", "meta": {"OBJECT_NAME": "GAOFEN-4", "OBJECT_ID": "2015-083A", "EPOCH": "2025-12-25T18:48:31.585824", "MEAN_MOTION": 1.00269663, "ECCENTRICITY": 0.0002819, "INCLINATION": 0.2017, "RA_OF_ASC_NODE": 81.9193, "ARG_OF_PERICENTER": 93.7327, "MEAN_ANOMALY": 306.7256, "EPHEMERIS_TYPE": 0, "CLASSIFICATION_TYPE": "U", "NORAD_CAT_ID": 41194, "ELEMENT_SET_NO": 999, "REV_AT_EPOCH": 3679, "BSTAR": 0, "MEAN_MOTION_DOT": -3.13e-06, "MEAN_MOTION_DDOT": 0}, "tle": {"line1": "1 41194U 15083A   25359.78369891 -.00000313  00000+0  00000+0 0  9997", "line2": "2 41194   0.2017  81.9193 0002819  93.7327 306.7256  1.00269663 36790"}}, "geometry": {"type": "Point", "coordinates": [-101.81207216049425, -0.004261211716340419]}}, {"type": "Feature", "properties": {"norad_id": 41240, "name": "JASON-3", "group": "resource", "lat": -47.445948933134545, "lon": -21.422801498450674, "alt_km": 1312.3856924872707, "timestamp": "2025-12-26T03:50:11.745056+00:00", "meta": {"OBJECT_NAME": "JASON-3", "OBJECT_ID": "2016-002A", "EPOCH": "2025-12-25T19:10:12.819072", "MEAN_MOTION": 12.87627089, "ECCENTRICITY": 0.0007313, "INCLINATION": 66.0406, "RA_OF_ASC_NODE": 130.369, "ARG_OF_PERICENTER": 271.5964, "MEAN_ANOMALY": 88.4217, "EPHEMERIS_TYPE": 0, "CLASSIFICATION_TYPE": "U", "NORAD_CAT_ID": 41240, "ELEMENT_SET_NO": 999, "REV_AT_EPOCH": 46492, "BSTAR": 0.0001415, "MEAN_MOTION_DOT": -2.6e-07, "MEAN_MOTION_DDOT": 0}, "tle": {"line1": "1 41240U 16002A   25359.79875948 -.00000026  00000+0  14150-3 0  9993", "line2": "2 41240  66.0406 130.3690 0007313 271.5964  88.4217 12.87627089464920"}}, "geometry": {"type": "Point", "coordinates": [-21.422801498450674, -47.445948933134545]}}, {"type": "Feature", "properties": {"norad_id": 41335, "name": "SENTINEL-3A", "group": "resource", "lat": 55.994037541960175, "lon": -102.00648273667919, "alt_km": 796.7179354587206, "timestamp": "2025-12-26T03:50:11.745066+00:00", "meta": {"OBJECT_NAME": "SENTINEL-3A", "OBJECT_ID": "2016-011A", "EPOCH": "2025-12-25T18:50:48.274944", "MEAN_MOTION": 14.26735646, "ECCENTRICITY": 8.82e-05, "INCLINATION": 98.6297, "RA_OF_ASC_NODE": 64.6157, "ARG_OF_PERICENTER": 97.2042, "MEAN_ANOMALY": 262.9239, "EPHEMERIS_TYPE": 0, "CLASSIFICATION_TYPE": "U", "NORAD_CAT_ID": 41335, "ELEMENT_SET_NO": 999, "REV_AT_EPOCH": 51333, "BSTAR": 7.5935e-05, "MEAN_MOTION_DOT": 1.4e-06, "MEAN_MOTION_DDOT": 0}, "tle": {"line1": "1 41335U 16011A   25359.78528096  .00000140  00000+0  75935-4 0  9991", "line2": "2 41335  98.6297  64.6157 0000882  97.2042 262.9239 14.26735646513332"}}, "geometry": {"type": "Point", "coordinates": [-102.00648273667919, 55.994037541960175]}}]}